ORBCOMM FM01            
1 23545U 95017A   24279.51055294  .00021354  00000+0  25943-2 0  9995
2 23545  69.9683 346.4310 0007186 332.2410  27.8357 14.83473387574646
ORBCOMM FM08            
1 25112U 97084A   24279.89364310  .00009172  00000+0  27077-2 0  9990
2 25112  45.0123 146.9595 0007063  48.6208 311.5249 14.43776108404599
ORBCOMM FM10            
1 25113U 97084B   24279.91173948  .00008923  00000+0  26426-2 0  9999
2 25113  45.0136 148.8683 0004665  18.3324 341.7694 14.43651660579745
ORBCOMM FM11            
1 25114U 97084C   24279.94519244  .00009022  00000+0  26816-2 0  9990
2 25114  45.0123 148.9234 0005523  18.5788 341.5263 14.43466500404716
ORBCOMM FM12            
1 25115U 97084D   24279.90889480  .00009016  00000+0  26818-2 0  9994
2 25115  45.0128 148.8446 0004568  19.2748 340.8275 14.43434983404500
